TRANSIT 16              
1 02807U 67048A   08268.87857760  .00000073  00000-0  10000-3 0  1327
2 02807  89.6389 213.0037 0018701 290.5136  69.4002 13.49696112 34832
TRANSIT 17              
1 02965U 67092A   08268.69074984  .00000078  00000-0  10000-3 0  4384
2 02965  89.2766 142.5093 0048736 117.1920 243.4205 13.52405875 21233
TRANSIT 18              
1 03133U 68012A   08268.61763373  .00000075  00000-0  10000-3 0   905
2 03133  89.9801 287.2138 0076544  13.1627 347.1485 13.50509502996718
NNSS 19                 
1 04507U 70067A   08269.70617559  .00000018  00000-0  93472-5 0  7381
2 04507  89.8766 315.1789 0174481 128.2328 233.4678 13.50116293873997
NNSS O-20               
1 06909U 73081A   08268.81948805  .00000100  00000-0  93613-4 0  1629
2 06909  89.8620   1.9458 0158594 180.7982 179.2957 13.69726001942733
TRANSAT                 
1 10457U 77106A   08268.91718007  .00000072  00000-0  10000-3 0  7446
2 10457  89.6629 257.3785 0025377 319.3188  40.6065 13.48250236520229
NOVA I                  
1 12458U 81044A   08269.88659451  .00000050  00000-0  10000-3 0  5634
2 12458  90.1051 113.2406 0015264 146.0641 214.1451 13.22690558320908
NOVA 3                  
1 15362U 84110A   08268.98185515  .00000051  00000-0  10000-3 0  8536
2 15362  89.9646  51.3589 0033568  15.9990 344.2197 13.22466579156052
OSCAR 30                
1 15935U 85066A   08269.23184319  .00000038  00000-0  51737-4 0  2636
2 15935  90.0457  21.4985 0169077 171.5651 188.8396 13.35244594125343
OSCAR 24                
1 15936U 85066B   08269.38836060  .00000136  00000-0  23143-3 0  5316
2 15936  90.0368  18.8317 0170480 173.8098 186.5195 13.35144862127491
POLAR BEAR              
1 17070U 86088A   08269.86996564  .00000019  00000-0  78295-5 0  5670
2 17070  89.5577 121.9888 0038830 347.7352  12.2864 13.74321394 96339
OSCAR 27                
1 18361U 87080A   08269.52145018  .00000068  00000-0  10000-3 0  1971
2 18361  90.3102 224.8859 0104577 216.4803 142.9187 13.44056608 31072
OSCAR 29                
1 18362U 87080B   08269.42421624  .00000067  00000-0  10000-3 0  4546
2 18362  90.3100 224.9860 0105924 227.3575 131.8602 13.43684062 30841
OSCAR 23                
1 19070U 88033A   08268.46283848  .00000058  00000-0  10000-3 0  4842
2 19070  90.2485 178.4150 0191802  18.8293 341.9813 13.27085464988593
OSCAR 32                
1 19071U 88033B   08268.79770858  .00000057  00000-0  10000-3 0   600
2 19071  90.2495 178.5074 0190024  10.2975 350.1972 13.27296610988796
NOVA 11                 
1 19223U 88052A   08269.05029118  .00000051  00000-0  10000-3 0  2400
2 19223  90.0271  89.8968 0032503  56.6512 303.7724 13.22397990978605
OSCAR 25                
1 19419U 88074A   08269.38020856  .00000067  00000-0  10000-3 0  4507
2 19419  89.9068  33.7376 0096658 169.5502 190.7687 13.41789919983322
OSCAR 31                
1 19420U 88074B   08269.49347734  .00000067  00000-0  10000-3 0  1202
2 19420  89.9066  33.6692 0094886 163.8695 196.5505 13.41850072983437
